*******************************************************************************
Ephemeris / PORT_LOGIN Sun Nov 27 10:14:14 2011 Pasadena, USA    / Horizons    
*******************************************************************************
Target body name: Epimetheus (611)                {source: SAT342}
Center body name: Solar System Barycenter (0)     {source: DE405}
Center-site name: BODY CENTER
*******************************************************************************
Start time      : A.D. 2001-Jan-01 10:00:00.0000 CT 
Stop  time      : A.D. 2001-Jan-02 00:00:00.0000 CT 
Step-size       : 60 minutes
*******************************************************************************
Center geodetic : 0.00000000,0.00000000,0.0000000 {E-lon(deg),Lat(deg),Alt(km)}
Center cylindric: 0.00000000,0.00000000,0.0000000 {E-lon(deg),Dxy(km),Dz(km)}
Center radii    : (undefined)                                                  
Output units    : AU-D                                                         
Output format   : 03
Reference frame : ICRF/J2000.0                                                 
Output type     : GEOMETRIC cartesian states
Coordinate systm: Earth Mean Equator and Equinox of Reference Epoch            
*******************************************************************************
JDCT 
   X     Y     Z
   VX    VY    VZ
   LT    RG    RR
*******************************************************************************
$$SOE
2451910.916666667 = A.D. 2001-Jan-01 10:00:00.0000 (CT)
   4.678809348490045E+00  7.291152300694813E+00  2.809646779893990E+00
  -1.410310394234931E-02  7.725541828936281E-04  2.128400104299135E-03
   5.260044364862348E-02  9.107484494590906E+00 -5.970130598970259E-03
2451910.958333333 = A.D. 2001-Jan-01 11:00:00.0000 (CT)
   4.678245389179333E+00  7.291115683970240E+00  2.809738443922096E+00
  -1.276271508478073E-02 -2.443305473427042E-03  2.248898043500868E-03
   5.259876443574221E-02  9.107193747893380E+00 -7.818294256010948E-03
2451911.000000000 = A.D. 2001-Jan-01 12:00:00.0000 (CT)
   4.677760949357658E+00  7.290958995990999E+00  2.809832238462487E+00
  -1.033608325181760E-02 -4.921502028577727E-03  2.229751335248950E-03
   5.259676987527835E-02  9.106848400454497E+00 -8.561355748963651E-03
2451911.041666667 = A.D. 2001-Jan-01 13:00:00.0000 (CT)
   4.677394079403960E+00  7.290720651435709E+00  2.809922379130345E+00
  -7.190286158950177E-03 -6.318781108476239E-03  2.076083206367663E-03
   5.259474008820190E-02  9.106496953716720E+00 -8.111421718085161E-03
2451911.083333333 = A.D. 2001-Jan-01 14:00:00.0000 (CT)
   4.677165403266556E+00  7.290449956169455E+00  2.810003708266225E+00
  -3.782650469837198E-03 -6.460386758640505E-03  1.812222907712841E-03
   5.259295499796306E-02  9.106187874923005E+00 -6.555855864237548E-03
2451911.125000000 = A.D. 2001-Jan-01 15:00:00.0000 (CT)
   4.677075872721701E+00  7.290199716316507E+00  2.810072399854316E+00
  -5.883748955818055E-04 -5.352611523243808E-03  1.476785675330816E-03
   5.259165475662290E-02  9.105962745113761E+00 -4.131754919597786E-03
2451911.166666667 = A.D. 2001-Jan-01 16:00:00.0000 (CT)
   4.677107411002969E+00  7.290018924001771E+00  2.810126427037691E+00
   1.963975548297382E-03 -3.167965272778626E-03  1.116441712647588E-03
   5.259100865651899E-02  9.105850876348594E+00 -1.182916344938806E-03
2451911.208333333 = A.D. 2001-Jan-01 17:00:00.0000 (CT)
   4.677225943197885E+00  7.289946469270222E+00  2.810165765199255E+00
   3.541916573173938E-03 -2.123688896888152E-04  7.796183420560188E-04
   5.259109539026773E-02  9.105865893831659E+00  1.889885401622987E-03
2451911.250000000 = A.D. 2001-Jan-01 18:00:00.0000 (CT)
   4.677386147327148E+00  7.290006439729210E+00  2.810192344220234E+00
   3.942373816560985E-03  3.117075438011180E-03  5.108269731028540E-04
   5.259189531653359E-02  9.106004396771137E+00  4.678124991629778E-03
2451911.291666667 = A.D. 2001-Jan-01 19:00:00.0000 (CT)
   4.677537290899179E+00  7.290205280282695E+00  2.810209781561661E+00
   3.110849417107972E-03  6.378593525290173E-03  3.458227669263429E-04
   5.259329416977687E-02  9.106246600702121E+00  6.811171231763349E-03
2451911.333333333 = A.D. 2001-Jan-01 20:00:00.0000 (CT)
   4.677629604283323E+00  7.290530943674203E+00  2.810222930911026E+00
   1.148163461036860E-03  9.134668610726595E-03  3.075892943253886E-04
   5.259509725054841E-02  9.106558794460012E+00  7.997715019985079E-03
2451911.375000000 = A.D. 2001-Jan-01 21:00:00.0000 (CT)
   4.677620672625747E+00  7.290954122051305E+00  2.810237281564341E+00
  -1.695698887627871E-03  1.100289390010694E-02  4.032209534728883E-04
   5.259705302887252E-02  9.106897426979554E+00  8.062340177764638E-03
2451911.416666667 = A.D. 2001-Jan-01 22:00:00.0000 (CT)
   4.677481256024254E+00  7.291431611618774E+00  2.810258252195970E+00
  -5.043487698879663E-03  1.170696828985797E-02  6.220584267499980E-04
   5.259888471556810E-02  9.107214573699652E+00  6.974457865409622E-03
2451911.458333333 = A.D. 2001-Jan-01 23:00:00.0000 (CT)
   4.677199806640959E+00  7.291911720132974E+00  2.810290444092391E+00
  -8.431802177848996E-03  1.112250053231896E-02  9.357342492216394E-04
   5.260032732190575E-02  9.107464353244094E+00  4.863785547066206E-03
2451911.500000000 = A.D. 2001-Jan-02 00:00:00.0000 (CT)
   4.676784851123993E+00  7.292341315245863E+00  2.810336949122158E+00
  -1.137212092781643E-02  9.308096060673272E-03  1.300861673480817E-03
   5.260116605241136E-02  9.107609574929409E+00  2.014657091400979E-03
$$EOE
*******************************************************************************
Coordinate system description:

  Earth Mean Equator and Equinox of Reference Epoch

    Reference epoch: J2000.0
    xy-plane: plane of the Earth's mean equator at the reference epoch
    x-axis  : out along ascending node of instantaneous plane of the Earth's
              orbit and the Earth's mean equator at the reference epoch
    z-axis  : along the Earth mean north pole at the reference epoch

Symbol meaning [1 AU=149597870.691 km, 1 day=86400.0 s]:

    JDCT     Epoch Julian Date, Coordinate Time
      X      x-component of position vector (AU)                               
      Y      y-component of position vector (AU)                               
      Z      z-component of position vector (AU)                               
      VX     x-component of velocity vector (AU/day)                           
      VY     y-component of velocity vector (AU/day)                           
      VZ     z-component of velocity vector (AU/day)                           
      LT     One-way down-leg Newtonian light-time (day)                       
      RG     Range; distance from coordinate center (AU)                       
      RR     Range-rate; radial velocity wrt coord. center (AU/day)            

Geometric states/elements have no aberration corrections applied.

 Computations by ...
     Solar System Dynamics Group, Horizons On-Line Ephemeris System
     4800 Oak Grove Drive, Jet Propulsion Laboratory
     Pasadena, CA  91109   USA
     Information: http://ssd.jpl.nasa.gov/
     Connect    : telnet://ssd.jpl.nasa.gov:6775  (via browser)
                  telnet ssd.jpl.nasa.gov 6775    (via command-line)
     Author     : Jon.Giorgini@jpl.nasa.gov
*******************************************************************************
